GLOBALSTAR M063         
1 26081U 00008A   25214.51236531 -.00000051  00000+0  45949-3 0  9995
2 26081  51.9982 349.5686 0005023  53.8540  38.1081 11.86174237163134
GLOBALSTAR M062         
1 26082U 00008B   25214.58566288 -.00000144  00000+0 -32753-3 0  9991
2 26082  51.9872 319.3405 0007272 206.3704 226.1638 12.43470580502398
GLOBALSTAR M060         
1 26083U 00008C   25214.62604545  .00000016  00000+0  10604-2 0  9992
2 26083  52.0022 285.7999 0003478 212.8971 295.0500 12.17662493158021
GLOBALSTAR M064         
1 26084U 00008D   25214.81872255 -.00000108  00000+0 -34635-3 0  9994
2 26084  52.0036  87.0394 0001623 118.2000 241.8996 11.88535099172753
GLOBALSTAR M065         
1 31571U 07020A   25215.05578449 -.00000107  00000+0 -16843-4 0  9998
2 31571  51.9894  83.6142 0010821  53.2438 111.6973 12.62010357839630
GLOBALSTAR M072         
1 31574U 07020D   25215.23813984 -.00000063  00000+0  29263-3 0  9996
2 31574  51.9900 226.7101 0000986  56.9307  25.1899 11.91650942837413
GLOBALSTAR M071         
1 31576U 07020F   25214.09448440 -.00000041  00000+0  49251-3 0  9997
2 31576  52.0061 102.1900 0000408 134.4572  14.1794 12.18256758500533
